[
    {
        "OBJECT_NAME": "COSMOS 2308 [GLONASS]",
        "OBJECT_ID": "1995-009B",
        "EPOCH": "2026-07-22T10:05:38.676192",
        "MEAN_MOTION": 2.13100074,
        "ECCENTRICITY": 0.00046436,
        "INCLINATION": 63.9777,
        "RA_OF_ASC_NODE": 299.872,
        "ARG_OF_PERICENTER": 316.5015,
        "MEAN_ANOMALY": 41.4102,
        "EPHEMERIS_TYPE": 0,
        "CLASSIFICATION_TYPE": "U",
        "NORAD_CAT_ID": 23512,
        "ELEMENT_SET_NO": 999,
        "REV_AT_EPOCH": 24395,
        "BSTAR": 0,
        "MEAN_MOTION_DOT": -7.8e-07,
        "MEAN_MOTION_DDOT": 0
    },
    {
        "OBJECT_NAME": "COSMOS 2309 [GLONASS]",
        "OBJECT_ID": "1995-009C",
        "EPOCH": "2026-07-21T18:37:20.376192",
        "MEAN_MOTION": 2.13052514,
        "ECCENTRICITY": 0.00375511,
        "INCLINATION": 63.9867,
        "RA_OF_ASC_NODE": 300.1337,
        "ARG_OF_PERICENTER": 211.5143,
        "MEAN_ANOMALY": 146.1938,
        "EPHEMERIS_TYPE": 0,
        "CLASSIFICATION_TYPE": "U",
        "NORAD_CAT_ID": 23513,
        "ELEMENT_SET_NO": 999,
        "REV_AT_EPOCH": 24403,
        "BSTAR": 0,
        "MEAN_MOTION_DOT": -7.9e-07,
        "MEAN_MOTION_DDOT": 0
    },
    {
        "OBJECT_NAME": "COSMOS 2316 [GLONASS]",
        "OBJECT_ID": "1995-037A",
        "EPOCH": "2026-07-21T03:50:19.754304",
        "MEAN_MOTION": 2.13101918,
        "ECCENTRICITY": 0.00124626,
        "INCLINATION": 65.4711,
        "RA_OF_ASC_NODE": 201.7113,
        "ARG_OF_PERICENTER": 157.9283,
        "MEAN_ANOMALY": 297.8247,
        "EPHEMERIS_TYPE": 0,
        "CLASSIFICATION_TYPE": "U",
        "NORAD_CAT_ID": 23620,
        "ELEMENT_SET_NO": 999,
        "REV_AT_EPOCH": 24116,
        "BSTAR": 0,
        "MEAN_MOTION_DOT": 9.2e-07,
        "MEAN_MOTION_DDOT": 0
    },
    {
        "OBJECT_NAME": "COSMOS 2317 [GLONASS]",
        "OBJECT_ID": "1995-037B",
        "EPOCH": "2026-07-22T03:38:38.811840",
        "MEAN_MOTION": 2.13101811,
        "ECCENTRICITY": 0.00093671,
        "INCLINATION": 65.481,
        "RA_OF_ASC_NODE": 201.825,
        "ARG_OF_PERICENTER": 176.1058,
        "MEAN_ANOMALY": 185.3559,
        "EPHEMERIS_TYPE": 0,
        "CLASSIFICATION_TYPE": "U",
        "NORAD_CAT_ID": 23621,
        "ELEMENT_SET_NO": 999,
        "REV_AT_EPOCH": 24100,
        "BSTAR": 0,
        "MEAN_MOTION_DOT": 9.9e-07,
        "MEAN_MOTION_DDOT": 0
    },
    {
        "OBJECT_NAME": "COSMOS 2318 [GLONASS]",
        "OBJECT_ID": "1995-037C",
        "EPOCH": "2026-07-21T08:48:33.173568",
        "MEAN_MOTION": 2.13102076,
        "ECCENTRICITY": 0.0014329,
        "INCLINATION": 65.4726,
        "RA_OF_ASC_NODE": 201.7321,
        "ARG_OF_PERICENTER": 62.5593,
        "MEAN_ANOMALY": 11.7917,
        "EPHEMERIS_TYPE": 0,
        "CLASSIFICATION_TYPE": "U",
        "NORAD_CAT_ID": 23622,
        "ELEMENT_SET_NO": 999,
        "REV_AT_EPOCH": 24096,
        "BSTAR": 0,
        "MEAN_MOTION_DOT": 9.4e-07,
        "MEAN_MOTION_DDOT": 0
    },
    {
        "OBJECT_NAME": "COSMOS 2325 [GLONASS]",
        "OBJECT_ID": "1995-068A",
        "EPOCH": "2026-07-22T07:26:38.662944",
        "MEAN_MOTION": 2.13102687,
        "ECCENTRICITY": 0.00225053,
        "INCLINATION": 65.4754,
        "RA_OF_ASC_NODE": 201.6473,
        "ARG_OF_PERICENTER": 221.5278,
        "MEAN_ANOMALY": 144.613,
        "EPHEMERIS_TYPE": 0,
        "CLASSIFICATION_TYPE": "U",
        "NORAD_CAT_ID": 23734,
        "ELEMENT_SET_NO": 999,
        "REV_AT_EPOCH": 23814,
        "BSTAR": 0,
        "MEAN_MOTION_DOT": 1e-06,
        "MEAN_MOTION_DDOT": 0
    },
    {
        "OBJECT_NAME": "COSMOS 2324 [GLONASS]",
        "OBJECT_ID": "1995-068B",
        "EPOCH": "2026-07-22T10:05:13.201152",
        "MEAN_MOTION": 2.13102877,
        "ECCENTRICITY": 0.00034327,
        "INCLINATION": 65.4728,
        "RA_OF_ASC_NODE": 201.5867,
        "ARG_OF_PERICENTER": 101.8792,
        "MEAN_ANOMALY": 258.1814,
        "EPHEMERIS_TYPE": 0,
        "CLASSIFICATION_TYPE": "U",
        "NORAD_CAT_ID": 23735,
        "ELEMENT_SET_NO": 999,
        "REV_AT_EPOCH": 23821,
        "BSTAR": 0,
        "MEAN_MOTION_DOT": 1e-06,
        "MEAN_MOTION_DDOT": 0
    },
    {
        "OBJECT_NAME": "COSMOS 2323 [GLONASS]",
        "OBJECT_ID": "1995-068C",
        "EPOCH": "2026-07-22T03:53:04.536384",
        "MEAN_MOTION": 2.13103991,
        "ECCENTRICITY": 0.00096602,
        "INCLINATION": 65.4639,
        "RA_OF_ASC_NODE": 201.4924,
        "ARG_OF_PERICENTER": 194.3993,
        "MEAN_ANOMALY": 241.7441,
        "EPHEMERIS_TYPE": 0,
        "CLASSIFICATION_TYPE": "U",
        "NORAD_CAT_ID": 23736,
        "ELEMENT_SET_NO": 999,
        "REV_AT_EPOCH": 23795,
        "BSTAR": 0,
        "MEAN_MOTION_DOT": 9.9e-07,
        "MEAN_MOTION_DDOT": 0
    },
    {
        "OBJECT_NAME": "COSMOS 2364 [GLONASS]",
        "OBJECT_ID": "1998-077A",
        "EPOCH": "2026-07-20T08:49:22.905408",
        "MEAN_MOTION": 2.13102863,
        "ECCENTRICITY": 0.00323141,
        "INCLINATION": 64.3534,
        "RA_OF_ASC_NODE": 58.9845,
        "ARG_OF_PERICENTER": 53.524,
        "MEAN_ANOMALY": 125.4061,
        "EPHEMERIS_TYPE": 0,
        "CLASSIFICATION_TYPE": "U",
        "NORAD_CAT_ID": 25593,
        "ELEMENT_SET_NO": 999,
        "REV_AT_EPOCH": 21436,
        "BSTAR": 0,
        "MEAN_MOTION_DOT": -5.6e-07,
        "MEAN_MOTION_DDOT": 0
    },
    {
        "OBJECT_NAME": "COSMOS 2363 [GLONASS]",
        "OBJECT_ID": "1998-077B",
        "EPOCH": "2026-07-21T05:53:52.715328",
        "MEAN_MOTION": 2.13103712,
        "ECCENTRICITY": 0.0027542,
        "INCLINATION": 64.3497,
        "RA_OF_ASC_NODE": 58.8805,
        "ARG_OF_PERICENTER": 46.2871,
        "MEAN_ANOMALY": 154.9746,
        "EPHEMERIS_TYPE": 0,
        "CLASSIFICATION_TYPE": "U",
        "NORAD_CAT_ID": 25594,
        "ELEMENT_SET_NO": 999,
        "REV_AT_EPOCH": 21440,
        "BSTAR": 0,
        "MEAN_MOTION_DOT": -5.5e-07,
        "MEAN_MOTION_DDOT": 0
    },
    {
        "OBJECT_NAME": "COSMOS 2362 [GLONASS]",
        "OBJECT_ID": "1998-077C",
        "EPOCH": "2026-07-14T13:54:19.245888",
        "MEAN_MOTION": 2.13103719,
        "ECCENTRICITY": 0.0007297,
        "INCLINATION": 64.355,
        "RA_OF_ASC_NODE": 59.2497,
        "ARG_OF_PERICENTER": 60.5871,
        "MEAN_ANOMALY": 116.3878,
        "EPHEMERIS_TYPE": 0,
        "CLASSIFICATION_TYPE": "U",
        "NORAD_CAT_ID": 25595,
        "ELEMENT_SET_NO": 999,
        "REV_AT_EPOCH": 21426,
        "BSTAR": 0,
        "MEAN_MOTION_DOT": -1.7e-07,
        "MEAN_MOTION_DDOT": 0
    },
    {
        "OBJECT_NAME": "COSMOS 2375 [GLONASS]",
        "OBJECT_ID": "2000-063A",
        "EPOCH": "2026-07-15T22:08:12.946848",
        "MEAN_MOTION": 2.13101816,
        "ECCENTRICITY": 0.0006667,
        "INCLINATION": 65.181,
        "RA_OF_ASC_NODE": 312.8448,
        "ARG_OF_PERICENTER": 18.1859,
        "MEAN_ANOMALY": 341.8524,
        "EPHEMERIS_TYPE": 0,
        "CLASSIFICATION_TYPE": "U",
        "NORAD_CAT_ID": 26564,
        "ELEMENT_SET_NO": 999,
        "REV_AT_EPOCH": 20039,
        "BSTAR": 0,
        "MEAN_MOTION_DOT": -6.2e-07,
        "MEAN_MOTION_DDOT": 0
    },
    {
        "OBJECT_NAME": "COSMOS 2376 [GLONASS]",
        "OBJECT_ID": "2000-063B",
        "EPOCH": "2026-07-19T14:25:16.370688",
        "MEAN_MOTION": 2.13102544,
        "ECCENTRICITY": 0.00047673,
        "INCLINATION": 65.1832,
        "RA_OF_ASC_NODE": 312.7524,
        "ARG_OF_PERICENTER": 29.387,
        "MEAN_ANOMALY": 335.8909,
        "EPHEMERIS_TYPE": 0,
        "CLASSIFICATION_TYPE": "U",
        "NORAD_CAT_ID": 26565,
        "ELEMENT_SET_NO": 999,
        "REV_AT_EPOCH": 20051,
        "BSTAR": 0,
        "MEAN_MOTION_DOT": -7.9e-07,
        "MEAN_MOTION_DDOT": 0
    }
]
