{"epoch":1784762836,"count":18316,"objects":[{"id":"23512","name":"COSMOS 2308 (GLONASS)","type":"PAYLOAD","l1":"1 23512U 95009B   26203.42058653 -.00000078  00000-0  00000-0 0  9998","l2":"2 23512  63.9777 299.8720 0004644 316.5015  41.4102  2.13100074243953"},{"id":"23513","name":"COSMOS 2309 (GLONASS)","type":"PAYLOAD","l1":"1 23513U 95009C   26202.77593028 -.00000079  00000-0  00000-0 0  9997","l2":"2 23513  63.9867 300.1337 0037551 211.5143 146.1938  2.13052514244038"},{"id":"23620","name":"COSMOS 2316 (GLONASS)","type":"PAYLOAD","l1":"1 23620U 95037A   26202.15995086  .00000092  00000-0  00000-0 0  9993","l2":"2 23620  65.4711 201.7113 0012463 157.9283 297.8247  2.13101918241164"},{"id":"23621","name":"COSMOS 2317 (GLONASS)","type":"PAYLOAD","l1":"1 23621U 95037B   26203.15183810  .00000099  00000-0  00000-0 0  9996","l2":"2 23621  65.4810 201.8250 0009367 176.1058 185.3559  2.13101811241002"},{"id":"23622","name":"COSMOS 2318 (GLONASS)","type":"PAYLOAD","l1":"1 23622U 95037C   26202.36705062  .00000094  00000-0  00000-0 0  9993","l2":"2 23622  65.4726 201.7321 0014329  62.5593  11.7917  2.13102076240961"},{"id":"23734","name":"COSMOS 2325 (GLONASS)","type":"PAYLOAD","l1":"1 23734U 95068A   26203.31016971  .00000100  00000-0  00000-0 0  9999","l2":"2 23734  65.4754 201.6473 0022505 221.5278 144.6130  2.13102687238143"},{"id":"23735","name":"COSMOS 2324 (GLONASS)","type":"PAYLOAD","l1":"1 23735U 95068B   26203.42029168  .00000100  00000-0  00000-0 0  9994","l2":"2 23735  65.4728 201.5867 0003433 101.8792 258.1814  2.13102877238210"},{"id":"23736","name":"COSMOS 2323 (GLONASS)","type":"PAYLOAD","l1":"1 23736U 95068C   26203.16185806  .00000099  00000-0  00000-0 0  9995","l2":"2 23736  65.4639 201.4924 0009660 194.3993 241.7441  2.13103991237955"},{"id":"25593","name":"COSMOS 2364 (GLONASS)","type":"PAYLOAD","l1":"1 25593U 98077A   26201.36762622 -.00000056  00000-0  00000-0 0  9992","l2":"2 25593  64.3534  58.9845 0032314  53.5240 125.4061  2.13102863214363"},{"id":"25594","name":"COSMOS 2363 (GLONASS)","type":"PAYLOAD","l1":"1 25594U 98077B   26202.24574902 -.00000055  00000-0  00000-0 0  9992","l2":"2 25594  64.3497  58.8805 0027542  46.2871 154.9746  2.13103712214409"},{"id":"25595","name":"COSMOS 2362 (GLONASS)","type":"PAYLOAD","l1":"1 25595U 98077C   26195.57938942 -.00000017  00000-0  00000+0 0  9995","l2":"2 25595  64.3550  59.2497 0007297  60.5871 116.3878  2.13103719214265"},{"id":"26564","name":"COSMOS 2375 (GLONASS)","type":"PAYLOAD","l1":"1 26564U 00063A   26196.92237207 -.00000062  00000-0  00000+0 0  9996","l2":"2 26564  65.1810 312.8448 0006667  18.1859 341.8524  2.13101816200397"},{"id":"26565","name":"COSMOS 2376 (GLONASS)","type":"PAYLOAD","l1":"1 26565U 00063B   26200.60088392 -.00000079  00000-0  00000-0 0  9996","l2":"2 26565  65.1832 312.7524 0004767  29.3870 335.8909  2.13102544200515"}]}